CCSDS_OMM_VERS = 2.0
CREATION_DATE  = 
ORIGINATOR     = 

OBJECT_NAME    = DELTA 2 R/B(1)
OBJECT_ID      = 1990-008B
CENTER_NAME    = EARTH
REF_FRAME      = TEME
TIME_SYSTEM    = UTC
MEAN_ELEMENT_THEORY = SGP/SGP4

EPOCH          = 2025-12-17T00:20:49.561728
MEAN_MOTION    = 15.45565350
ECCENTRICITY   = .01112781
INCLINATION    = 35.6076
RA_OF_ASC_NODE = 352.9224
ARG_OF_PERICENTER = 217.4846
MEAN_ANOMALY   = 141.8087

EPHEMERIS_TYPE = 0
CLASSIFICATION_TYPE = U
NORAD_CAT_ID   = 20453
ELEMENT_SET_NO = 999
REV_AT_EPOCH   = 91329
BSTAR          = .59732381E-3
MEAN_MOTION_DOT = .37775E-3
MEAN_MOTION_DDOT = 0

CCSDS_OMM_VERS = 2.0
CREATION_DATE  = 
ORIGINATOR     = 

OBJECT_NAME    = COSMOS 2058
OBJECT_ID      = 1990-010A
CENTER_NAME    = EARTH
REF_FRAME      = TEME
TIME_SYSTEM    = UTC
MEAN_ELEMENT_THEORY = SGP/SGP4

EPOCH          = 2025-12-16T20:45:49.757472
MEAN_MOTION    = 15.10512185
ECCENTRICITY   = .0008591
INCLINATION    = 82.4678
RA_OF_ASC_NODE = 128.9721
ARG_OF_PERICENTER = 255.8731
MEAN_ANOMALY   = 104.1544

EPHEMERIS_TYPE = 0
CLASSIFICATION_TYPE = U
NORAD_CAT_ID   = 20465
ELEMENT_SET_NO = 999
REV_AT_EPOCH   = 92973
BSTAR          = .27221416E-3
MEAN_MOTION_DOT = .4515E-4
MEAN_MOTION_DDOT = 0

CCSDS_OMM_VERS = 2.0
CREATION_DATE  = 
ORIGINATOR     = 

OBJECT_NAME    = SL-14 R/B
OBJECT_ID      = 1990-010B
CENTER_NAME    = EARTH
REF_FRAME      = TEME
TIME_SYSTEM    = UTC
MEAN_ELEMENT_THEORY = SGP/SGP4

EPOCH          = 2025-12-16T23:52:36.405984
MEAN_MOTION    = 14.83475386
ECCENTRICITY   = .00190181
INCLINATION    = 82.5019
RA_OF_ASC_NODE = 345.0505
ARG_OF_PERICENTER = 208.3951
MEAN_ANOMALY   = 151.6230

EPHEMERIS_TYPE = 0
CLASSIFICATION_TYPE = U
NORAD_CAT_ID   = 20466
ELEMENT_SET_NO = 999
REV_AT_EPOCH   = 91622
BSTAR          = .50629732E-4
MEAN_MOTION_DOT = .441E-5
MEAN_MOTION_DDOT = 0

CCSDS_OMM_VERS = 2.0
CREATION_DATE  = 
ORIGINATOR     = 

OBJECT_NAME    = SL-14 R/B
OBJECT_ID      = 1990-018B
CENTER_NAME    = EARTH
REF_FRAME      = TEME
TIME_SYSTEM    = UTC
MEAN_ELEMENT_THEORY = SGP/SGP4

EPOCH          = 2025-12-16T22:23:45.494880
MEAN_MOTION    = 14.82051184
ECCENTRICITY   = .00166668
INCLINATION    = 82.5211
RA_OF_ASC_NODE = 300.4449
ARG_OF_PERICENTER = 10.0208
MEAN_ANOMALY   = 350.1335

EPHEMERIS_TYPE = 0
CLASSIFICATION_TYPE = U
NORAD_CAT_ID   = 20511
ELEMENT_SET_NO = 999
REV_AT_EPOCH   = 91032
BSTAR          = .56808078E-4
MEAN_MOTION_DOT = .475E-5
MEAN_MOTION_DDOT = 0

CCSDS_OMM_VERS = 2.0
CREATION_DATE  = 
ORIGINATOR     = 

OBJECT_NAME    = HST
OBJECT_ID      = 1990-037B
CENTER_NAME    = EARTH
REF_FRAME      = TEME
TIME_SYSTEM    = UTC
MEAN_ELEMENT_THEORY = SGP/SGP4

EPOCH          = 2025-12-16T01:22:56.218368
MEAN_MOTION    = 15.28101106
ECCENTRICITY   = .0001836
INCLINATION    = 28.4681
RA_OF_ASC_NODE = 249.9060
ARG_OF_PERICENTER = 282.0342
MEAN_ANOMALY   = 78.0047

EPHEMERIS_TYPE = 0
CLASSIFICATION_TYPE = U
NORAD_CAT_ID   = 20580
ELEMENT_SET_NO = 999
REV_AT_EPOCH   = 76050
BSTAR          = .1885507E-3
MEAN_MOTION_DOT = .554E-4
MEAN_MOTION_DDOT = 0

CCSDS_OMM_VERS = 2.0
CREATION_DATE  = 
ORIGINATOR     = 

OBJECT_NAME    = SL-16 R/B
OBJECT_ID      = 1990-046B
CENTER_NAME    = EARTH
REF_FRAME      = TEME
TIME_SYSTEM    = UTC
MEAN_ELEMENT_THEORY = SGP/SGP4

EPOCH          = 2025-12-16T18:36:32.359392
MEAN_MOTION    = 14.15000365
ECCENTRICITY   = .00119012
INCLINATION    = 70.9991
RA_OF_ASC_NODE = 112.0464
ARG_OF_PERICENTER = 65.9325
MEAN_ANOMALY   = 294.3041

EPHEMERIS_TYPE = 0
CLASSIFICATION_TYPE = U
NORAD_CAT_ID   = 20625
ELEMENT_SET_NO = 999
REV_AT_EPOCH   = 83666
BSTAR          = -.97301745E-4
MEAN_MOTION_DOT = -.236E-5
MEAN_MOTION_DDOT = 0

CCSDS_OMM_VERS = 2.0
CREATION_DATE  = 
ORIGINATOR     = 

OBJECT_NAME    = COSMOS 2084
OBJECT_ID      = 1990-055A
CENTER_NAME    = EARTH
REF_FRAME      = TEME
TIME_SYSTEM    = UTC
MEAN_ELEMENT_THEORY = SGP/SGP4

EPOCH          = 2025-12-17T00:28:16.155552
MEAN_MOTION    = 15.05045668
ECCENTRICITY   = .00310501
INCLINATION    = 62.7904
RA_OF_ASC_NODE = 257.4097
ARG_OF_PERICENTER = 175.2109
MEAN_ANOMALY   = 184.9294

EPHEMERIS_TYPE = 0
CLASSIFICATION_TYPE = U
NORAD_CAT_ID   = 20663
ELEMENT_SET_NO = 999
REV_AT_EPOCH   = 92387
BSTAR          = .16943143E-3
MEAN_MOTION_DOT = .2238E-4
MEAN_MOTION_DDOT = 0

CCSDS_OMM_VERS = 2.0
CREATION_DATE  = 
ORIGINATOR     = 

OBJECT_NAME    = SL-6 R/B(2)
OBJECT_ID      = 1990-055D
CENTER_NAME    = EARTH
REF_FRAME      = TEME
TIME_SYSTEM    = UTC
MEAN_ELEMENT_THEORY = SGP/SGP4

EPOCH          = 2025-12-16T21:24:33.344640
MEAN_MOTION    = 15.03093891
ECCENTRICITY   = .00131463
INCLINATION    = 62.7818
RA_OF_ASC_NODE = 175.3067
ARG_OF_PERICENTER = 311.9594
MEAN_ANOMALY   = 48.0384

EPHEMERIS_TYPE = 0
CLASSIFICATION_TYPE = U
NORAD_CAT_ID   = 20666
ELEMENT_SET_NO = 999
REV_AT_EPOCH   = 92574
BSTAR          = .13106791E-3
MEAN_MOTION_DOT = .1581E-4
MEAN_MOTION_DDOT = 0

CCSDS_OMM_VERS = 2.0
CREATION_DATE  = 
ORIGINATOR     = 

OBJECT_NAME    = SL-8 R/B
OBJECT_ID      = 1990-078B
CENTER_NAME    = EARTH
REF_FRAME      = TEME
TIME_SYSTEM    = UTC
MEAN_ELEMENT_THEORY = SGP/SGP4

EPOCH          = 2025-12-16T23:21:19.382400
MEAN_MOTION    = 14.86114165
ECCENTRICITY   = .03712639
INCLINATION    = 82.9044
RA_OF_ASC_NODE = 325.5204
ARG_OF_PERICENTER = 291.6559
MEAN_ANOMALY   = 64.5504

EPHEMERIS_TYPE = 0
CLASSIFICATION_TYPE = U
NORAD_CAT_ID   = 20775
ELEMENT_SET_NO = 999
REV_AT_EPOCH   = 79700
BSTAR          = .54410883E-3
MEAN_MOTION_DOT = .17593E-3
MEAN_MOTION_DDOT = 0

CCSDS_OMM_VERS = 2.0
CREATION_DATE  = 
ORIGINATOR     = 

OBJECT_NAME    = SL-8 R/B
OBJECT_ID      = 1991-006B
CENTER_NAME    = EARTH
REF_FRAME      = TEME
TIME_SYSTEM    = UTC
MEAN_ELEMENT_THEORY = SGP/SGP4

EPOCH          = 2025-12-16T19:41:47.265216
MEAN_MOTION    = 13.77490613
ECCENTRICITY   = .00211823
INCLINATION    = 82.9423
RA_OF_ASC_NODE = 231.6775
ARG_OF_PERICENTER = 267.7105
MEAN_ANOMALY   = 164.3772

EPHEMERIS_TYPE = 0
CLASSIFICATION_TYPE = U
NORAD_CAT_ID   = 21088
ELEMENT_SET_NO = 999
REV_AT_EPOCH   = 75266
BSTAR          = .69195853E-4
MEAN_MOTION_DOT = .84E-6
MEAN_MOTION_DDOT = 0

CCSDS_OMM_VERS = 2.0
CREATION_DATE  = 
ORIGINATOR     = 

OBJECT_NAME    = OKEAN-3
OBJECT_ID      = 1991-039A
CENTER_NAME    = EARTH
REF_FRAME      = TEME
TIME_SYSTEM    = UTC
MEAN_ELEMENT_THEORY = SGP/SGP4

EPOCH          = 2025-12-16T16:10:07.264416
MEAN_MOTION    = 15.04147501
ECCENTRICITY   = .00132454
INCLINATION    = 82.5180
RA_OF_ASC_NODE = 57.2402
ARG_OF_PERICENTER = 251.5404
MEAN_ANOMALY   = 108.4383

EPHEMERIS_TYPE = 0
CLASSIFICATION_TYPE = U
NORAD_CAT_ID   = 21397
ELEMENT_SET_NO = 999
REV_AT_EPOCH   = 85255
BSTAR          = .22125983E-3
MEAN_MOTION_DOT = .31E-4
MEAN_MOTION_DDOT = 0

CCSDS_OMM_VERS = 2.0
CREATION_DATE  = 
ORIGINATOR     = 

OBJECT_NAME    = COSMOS 2151
OBJECT_ID      = 1991-042A
CENTER_NAME    = EARTH
REF_FRAME      = TEME
TIME_SYSTEM    = UTC
MEAN_ELEMENT_THEORY = SGP/SGP4

EPOCH          = 2025-12-16T23:02:36.264480
MEAN_MOTION    = 14.99702397
ECCENTRICITY   = .00122255
INCLINATION    = 82.4962
RA_OF_ASC_NODE = 163.4361
ARG_OF_PERICENTER = 345.2924
MEAN_ANOMALY   = 14.7942

EPHEMERIS_TYPE = 0
CLASSIFICATION_TYPE = U
NORAD_CAT_ID   = 21422
ELEMENT_SET_NO = 999
REV_AT_EPOCH   = 85079
BSTAR          = .15280389E-3
MEAN_MOTION_DOT = .1914E-4
MEAN_MOTION_DDOT = 0

