DELTA 2 R/B(1)          
1 20453U 90008B   25351.01446252  .00037775  00000+0  59732-3 0  9998
2 20453  35.6076 352.9224 0111278 217.4846 141.8087 15.45565350913294
COSMOS 2058             
1 20465U 90010A   25350.86515923  .00004515  00000+0  27221-3 0  9992
2 20465  82.4678 128.9721 0008591 255.8731 104.1544 15.10512185929736
SL-14 R/B               
1 20466U 90010B   25350.99486581  .00000441  00000+0  50630-4 0  9999
2 20466  82.5019 345.0505 0019018 208.3951 151.6230 14.83475386916221
SL-14 R/B               
1 20511U 90018B   25350.93316545  .00000475  00000+0  56808-4 0  9994
2 20511  82.5211 300.4449 0016666  10.0208 350.1335 14.82051184910329
HST                     
1 20580U 90037B   25350.05759512  .00005540  00000+0  18855-3 0  9996
2 20580  28.4681 249.9060 0001836 282.0342  78.0047 15.28101106760504
SL-16 R/B               
1 20625U 90046B   25350.77537453 -.00000236  00000+0 -97302-4 0  9997
2 20625  70.9991 112.0464 0011901  65.9325 294.3041 14.15000365836669
COSMOS 2084             
1 20663U 90055A   25351.01963143  .00002238  00000+0  16943-3 0  9999
2 20663  62.7904 257.4097 0031050 175.2109 184.9294 15.05045668923871
SL-6 R/B(2)             
1 20666U 90055D   25350.89205260  .00001581  00000+0  13107-3 0  9995
2 20666  62.7818 175.3067 0013146 311.9594  48.0384 15.03093891925743
SL-8 R/B                
1 20775U 90078B   25350.97314100  .00017593  00000+0  54411-3 0  9997
2 20775  82.9044 325.5204 0371263 291.6559  64.5504 14.86114165797004
SL-8 R/B                
1 21088U 91006B   25350.82068594  .00000084  00000+0  69196-4 0  9998
2 21088  82.9423 231.6775 0021182 267.7105 164.3772 13.77490613752669
OKEAN-3                 
1 21397U 91039A   25350.67369519  .00003100  00000+0  22126-3 0  9994
2 21397  82.5180  57.2402 0013245 251.5404 108.4383 15.04147501852554
COSMOS 2151             
1 21422U 91042A   25350.96014195  .00001914  00000+0  15280-3 0  9990
2 21422  82.4962 163.4361 0012225 345.2924  14.7942 14.99702397850796
